STARLINK-2059
1 17668C 21012BA  21326.13610397 -.00015820  00000-0 -10599-2 0  3269
2 17668  53.0529 253.1419 0002043  66.5067 261.7991 15.06417526    14
